XRISM                   
1 57800U 23137A   23335.78222377  .00007804  00000+0  62537-3 0  9994
2 57800  31.0011 193.0442 0009834  43.1736 316.9668 14.98798462 12874
